[{"OBJECT_NAME":"STARLINK-6189","OBJECT_ID":"2023-061D","EPOCH":"2026-03-09T22:00:01.999584","MEAN_MOTION":15.13426184,"ECCENTRICITY":0.00021785,"INCLINATION":43.001,"RA_OF_ASC_NODE":195.8605,"ARG_OF_PERICENTER":262.2478,"MEAN_ANOMALY":82.0402,"EPHEMERIS_TYPE":0,"CLASSIFICATION_TYPE":"U","NORAD_CAT_ID":56377,"ELEMENT_SET_NO":999,"REV_AT_EPOCH":567,"BSTAR":0.002474963,"MEAN_MOTION_DOT":0.00045065,"MEAN_MOTION_DDOT":0},{"OBJECT_NAME":"NOAA 16 DEB","OBJECT_ID":"2000-055JP","EPOCH":"2026-03-07T06:03:41.025888","MEAN_MOTION":15.14327742,"ECCENTRICITY":0.002834,"INCLINATION":98.88,"RA_OF_ASC_NODE":0.7915,"ARG_OF_PERICENTER":107.2535,"MEAN_ANOMALY":253.1797,"EPHEMERIS_TYPE":0,"CLASSIFICATION_TYPE":"U","NORAD_CAT_ID":41370,"ELEMENT_SET_NO":999,"REV_AT_EPOCH":54059,"BSTAR":0.01119,"MEAN_MOTION_DOT":0.00212823,"MEAN_MOTION_DDOT":0}]
